{
  "type": "FeatureCollection",
  "features": [
    {
      "type": "Feature",
      "properties": {
        "norad_id": 66793,
        "name": "STARLINK-36051",
        "group": "last-30-days",
        "lat": 15.457409532645297,
        "lon": -122.67148894408983,
        "alt_km": 348.14985494902885,
        "timestamp": "2025-12-17T23:38:05.625073+00:00",
        "meta_object_name": "STARLINK-36051",
        "meta_object_id": "2025-278C",
        "meta_epoch": "2025-12-17T14:00:03.000384",
        "meta_mean_motion": 15.74784561,
        "meta_eccentricity": 0.00018463,
        "meta_inclination": 42.999,
        "meta_ra_of_asc_node": 222.4972,
        "meta_arg_of_pericenter": 262.4062,
        "meta_mean_anomaly": 3.3658,
        "meta_ephemeris_type": 0,
        "meta_classification_type": "U",
        "meta_norad_cat_id": 66793,
        "meta_element_set_no": 999,
        "meta_rev_at_epoch": 363,
        "meta_bstar": -0.014223606,
        "meta_mean_motion_dot": -0.01882096,
        "meta_mean_motion_ddot": 0,
        "tle_line1": "1 66793U 25278C   25351.58336806 -.01882096  00000+0 -14224-1 0  9999",
        "tle_line2": "2 66793  42.9990 222.4972 0001846 262.4062   3.3658 15.74784561  3630"
      },
      "geometry": {
        "type": "Point",
        "coordinates": [
          -122.67148894408983,
          15.457409532645297
        ]
      }
    },
    {
      "type": "Feature",
      "properties": {
        "norad_id": 66794,
        "name": "STARLINK-36062",
        "group": "last-30-days",
        "lat": 14.2011371142798,
        "lon": -124.17257686528511,
        "alt_km": 348.1291376111194,
        "timestamp": "2025-12-17T23:38:05.625085+00:00",
        "meta_object_name": "STARLINK-36062",
        "meta_object_id": "2025-278D",
        "meta_epoch": "2025-12-17T14:00:03.000384",
        "meta_mean_motion": 15.74779834,
        "meta_eccentricity": 0.00013284,
        "meta_inclination": 42.999,
        "meta_ra_of_asc_node": 222.501,
        "meta_arg_of_pericenter": 261.7115,
        "meta_mean_anomaly": 2.1448,
        "meta_ephemeris_type": 0,
        "meta_classification_type": "U",
        "meta_norad_cat_id": 66794,
        "meta_element_set_no": 999,
        "meta_rev_at_epoch": 373,
        "meta_bstar": -0.01414544,
        "meta_mean_motion_dot": -0.01872317,
        "meta_mean_motion_ddot": 0,
        "tle_line1": "1 66794U 25278D   25351.58336806 -.01872317  00000+0 -14145-1 0  9997",
        "tle_line2": "2 66794  42.9990 222.5010 0001328 261.7115   2.1448 15.74779834  3733"
      },
      "geometry": {
        "type": "Point",
        "coordinates": [
          -124.17257686528511,
          14.2011371142798
        ]
      }
    },
    {
      "type": "Feature",
      "properties": {
        "norad_id": 66795,
        "name": "STARLINK-36047",
        "group": "last-30-days",
        "lat": 16.70095342562908,
        "lon": -121.1562742416987,
        "alt_km": 347.9496562858949,
        "timestamp": "2025-12-17T23:38:05.625096+00:00",
        "meta_object_name": "STARLINK-36047",
        "meta_object_id": "2025-278E",
        "meta_epoch": "2025-12-17T14:00:03.000384",
        "meta_mean_motion": 15.74784371,
        "meta_eccentricity": 0.00015593,
        "meta_inclination": 42.9989,
        "meta_ra_of_asc_node": 222.4922,
        "meta_arg_of_pericenter": 260.5063,
        "meta_mean_anomaly": 7.1896,
        "meta_ephemeris_type": 0,
        "meta_classification_type": "U",
        "meta_norad_cat_id": 66795,
        "meta_element_set_no": 999,
        "meta_rev_at_epoch": 363,
        "meta_bstar": -0.014258551,
        "meta_mean_motion_dot": -0.01885825,
        "meta_mean_motion_ddot": 0,
        "tle_line1": "1 66795U 25278E   25351.58336806 -.01885825  00000+0 -14259-1 0  9992",
        "tle_line2": "2 66795  42.9989 222.4922 0001559 260.5063   7.1896 15.74784371  3631"
      },
      "geometry": {
        "type": "Point",
        "coordinates": [
          -121.1562742416987,
          16.70095342562908
        ]
      }
    },
    {
      "type": "Feature",
      "properties": {
        "norad_id": 66796,
        "name": "STARLINK-35964",
        "group": "last-30-days",
        "lat": 13.306676129930716,
        "lon": 24.096413333237056,
        "alt_km": 326.2156454387923,
        "timestamp": "2025-12-17T23:38:05.625106+00:00",
        "meta_object_name": "STARLINK-35964",
        "meta_object_id": "2025-278F",
        "meta_epoch": "2025-12-17T14:00:03.000384",
        "meta_mean_motion": 15.80874656,
        "meta_eccentricity": 0.00016978,
        "meta_inclination": 42.9933,
        "meta_ra_of_asc_node": 221.2607,
        "meta_arg_of_pericenter": 266.0108,
        "meta_mean_anomaly": 126.849,
        "meta_ephemeris_type": 0,
        "meta_classification_type": "U",
        "meta_norad_cat_id": 66796,
        "meta_element_set_no": 999,
        "meta_rev_at_epoch": 357,
        "meta_bstar": -2.5294357e-05,
        "meta_mean_motion_dot": -5.571e-05,
        "meta_mean_motion_ddot": 0,
        "tle_line1": "1 66796U 25278F   25351.58336806 -.00005571  00000+0 -25294-4 0  9998",
        "tle_line2": "2 66796  42.9933 221.2607 0001697 266.0108 126.8490 15.80874656  3577"
      },
      "geometry": {
        "type": "Point",
        "coordinates": [
          24.096413333237056,
          13.306676129930716
        ]
      }
    },
    {
      "type": "Feature",
      "properties": {
        "norad_id": 66797,
        "name": "STARLINK-36099",
        "group": "last-30-days",
        "lat": 19.15117740316359,
        "lon": -118.06675316474178,
        "alt_km": 347.4077949665616,
        "timestamp": "2025-12-17T23:38:05.625116+00:00",
        "meta_object_name": "STARLINK-36099",
        "meta_object_id": "2025-278G",
        "meta_epoch": "2025-12-17T14:00:03.000384",
        "meta_mean_motion": 15.74769817,
        "meta_eccentricity": 0.00016557,
        "meta_inclination": 42.9987,
        "meta_ra_of_asc_node": 222.4828,
        "meta_arg_of_pericenter": 270.6631,
        "meta_mean_anomaly": 0.8649,
        "meta_ephemeris_type": 0,
        "meta_classification_type": "U",
        "meta_norad_cat_id": 66797,
        "meta_element_set_no": 999,
        "meta_rev_at_epoch": 379,
        "meta_bstar": -0.014062678,
        "meta_mean_motion_dot": -0.01862377,
        "meta_mean_motion_ddot": 0,
        "tle_line1": "1 66797U 25278G   25351.58336806 -.01862377  00000+0 -14063-1 0  9994",
        "tle_line2": "2 66797  42.9987 222.4828 0001655 270.6631   0.8649 15.74769817  3797"
      },
      "geometry": {
        "type": "Point",
        "coordinates": [
          -118.06675316474178,
          19.15117740316359
        ]
      }
    },
    {
      "type": "Feature",
      "properties": {
        "norad_id": 66798,
        "name": "STARLINK-36041",
        "group": "last-30-days",
        "lat": 20.358413133166607,
        "lon": -116.48717652508941,
        "alt_km": 347.5589366145159,
        "timestamp": "2025-12-17T23:38:05.625140+00:00",
        "meta_object_name": "STARLINK-36041",
        "meta_object_id": "2025-278H",
        "meta_epoch": "2025-12-17T14:00:03.000384",
        "meta_mean_motion": 15.74776959,
        "meta_eccentricity": 0.00016258,
        "meta_inclination": 42.9988,
        "meta_ra_of_asc_node": 222.4771,
        "meta_arg_of_pericenter": 257.326,
        "meta_mean_anomaly": 16.1201,
        "meta_ephemeris_type": 0,
        "meta_classification_type": "U",
        "meta_norad_cat_id": 66798,
        "meta_element_set_no": 999,
        "meta_rev_at_epoch": 357,
        "meta_bstar": -0.014140683,
        "meta_mean_motion_dot": -0.01871829,
        "meta_mean_motion_ddot": 0,
        "tle_line1": "1 66798U 25278H   25351.58336806 -.01871829  00000+0 -14141-1 0  9994",
        "tle_line2": "2 66798  42.9988 222.4771 0001625 257.3260  16.1201 15.74776959  3578"
      },
      "geometry": {
        "type": "Point",
        "coordinates": [
          -116.48717652508941,
          20.358413133166607
        ]
      }
    },
    {
      "type": "Feature",
      "properties": {
        "norad_id": 66799,
        "name": "STARLINK-36044",
        "group": "last-30-days",
        "lat": 21.551262661469018,
        "lon": -114.8805836006779,
        "alt_km": 347.40418609880817,
        "timestamp": "2025-12-17T23:38:05.625151+00:00",
        "meta_object_name": "STARLINK-36044",
        "meta_object_id": "2025-278J",
        "meta_epoch": "2025-12-17T14:00:03.000384",
        "meta_mean_motion": 15.7478268,
        "meta_eccentricity": 0.00016939,
        "meta_inclination": 42.9988,
        "meta_ra_of_asc_node": 222.4733,
        "meta_arg_of_pericenter": 259.36,
        "meta_mean_anomaly": 16.0023,
        "meta_ephemeris_type": 0,
        "meta_classification_type": "U",
        "meta_norad_cat_id": 66799,
        "meta_element_set_no": 999,
        "meta_rev_at_epoch": 373,
        "meta_bstar": -0.014224934,
        "meta_mean_motion_dot": -0.01881972,
        "meta_mean_motion_ddot": 0,
        "tle_line1": "1 66799U 25278J   25351.58336806 -.01881972  00000+0 -14225-1 0  9998",
        "tle_line2": "2 66799  42.9988 222.4733 0001693 259.3600  16.0023 15.74782680  3739"
      },
      "geometry": {
        "type": "Point",
        "coordinates": [
          -114.8805836006779,
          21.551262661469018
        ]
      }
    }
  ]
}